{
    "links": {
        "self": "http://www.neowsapp.com/rest/v1/neo/3295790?api_key=iIulBulltgU6a56xZRHN4H3l9WmuAYTsLGpBGhQ2"
    },
    "id": "3295790",
    "neo_reference_id": "3295790",
    "name": "(2005 UR)",
    "designation": "2005 UR",
    "nasa_jpl_url": "http://ssd.jpl.nasa.gov/sbdb.cgi?sstr=3295790",
    "absolute_magnitude_h": 21.6,
    "estimated_diameter": {
        "kilometers": {
            "estimated_diameter_min": 0.1272198785,
            "estimated_diameter_max": 0.2844722965
        },
        "meters": {
            "estimated_diameter_min": 127.2198785394,
            "estimated_diameter_max": 284.4722965033
        },
        "miles": {
            "estimated_diameter_min": 0.0790507431,
            "estimated_diameter_max": 0.1767628354
        },
        "feet": {
            "estimated_diameter_min": 417.3880663071,
            "estimated_diameter_max": 933.3080892598
        }
    },
    "is_potentially_hazardous_asteroid": true,
    "close_approach_data": [
        {
            "close_approach_date": "1948-07-17",
            "close_approach_date_full": "1948-Jul-17 11:38",
            "epoch_date_close_approach": -677161320000,
            "relative_velocity": {
                "kilometers_per_second": "39.1762838515",
                "kilometers_per_hour": "141034.6218654148",
                "miles_per_hour": "87633.4293474295"
            },
            "miss_distance": {
                "astronomical": "0.2847633579",
                "lunar": "110.7729462231",
                "kilometers": "42599991.795887673",
                "miles": "26470407.4528609674"
            },
            "orbiting_body": "Earth"
        },
        {
            "close_approach_date": "2005-10-03",
            "close_approach_date_full": "2005-Oct-03 01:46",
            "epoch_date_close_approach": 1128303960000,
            "relative_velocity": {
                "kilometers_per_second": "28.3123222111",
                "kilometers_per_hour": "101924.3599599679",
                "miles_per_hour": "63331.8335540145"
            },
            "miss_distance": {
                "astronomical": "0.051443482",
                "lunar": "20.011514498",
                "kilometers": "7695835.33258334",
                "miles": "4781970.332756492"
            },
            "orbiting_body": "Mars"
        },
        {
            "close_approach_date": "2005-10-30",
            "close_approach_date_full": "2005-Oct-30 13:11",
            "epoch_date_close_approach": 1130677860000,
            "relative_velocity": {
                "kilometers_per_second": "30.8881209364",
                "kilometers_per_hour": "111197.2353712186",
                "miles_per_hour": "69093.6377227441"
            },
            "miss_distance": {
                "astronomical": "0.0412142169",
                "lunar": "16.0323303741",
                "kilometers": "6165559.061958003",
                "miles": "3831100.7505983214"
            },
            "orbiting_body": "Earth"
        },
        {
            "close_approach_date": "2005-12-05",
            "close_approach_date_full": "2005-Dec-05 08:07",
            "epoch_date_close_approach": 1133770020000,
            "relative_velocity": {
                "kilometers_per_second": "28.6604078508",
                "kilometers_per_hour": "103177.4682628984",
                "miles_per_hour": "64110.4663214659"
            },
            "miss_distance": {
                "astronomical": "0.0502490121",
                "lunar": "19.5468657069",
                "kilometers": "7517145.179764227",
                "miles": "4670937.4204592526"
            },
            "orbiting_body": "Merc"
        }
    ],
    "orbital_data": {
        "orbit_id": "12",
        "orbit_determination_date": "2017-04-06 09:10:11",
        "first_observation_date": "2005-10-23",
        "last_observation_date": "2005-10-29",
        "data_arc_in_days": 6,
        "observations_used": 74,
        "orbit_uncertainty": "9",
        "minimum_orbit_intersection": ".0334786",
        "jupiter_tisserand_invariant": "2.931",
        "epoch_osculation": "2453668.5",
        "eccentricity": ".8816557316311764",
        "semi_major_axis": "2.247809622944218",
        "inclination": "6.933002094226966",
        "ascending_node_longitude": "20.0280808736951",
        "orbital_period": "1230.942356783927",
        "perihelion_distance": ".2660153852597348",
        "perihelion_argument": "140.4775996138461",
        "aphelion_distance": "4.229603860628702",
        "perihelion_time": "2453714.271555243261",
        "mean_anomaly": "346.6137030732899",
        "mean_motion": ".2924588613073394",
        "equinox": "J2000",
        "orbit_class": {
            "orbit_class_type": "APO",
            "orbit_class_description": "Near-Earth asteroid orbits which cross the Earth’s orbit similar to that of 1862 Apollo",
            "orbit_class_range": "a (semi-major axis) > 1.0 AU; q (perihelion) < 1.017 AU"
        }
    },
    "is_sentry_object": false
}